From: horizons@ssd.jpl.nasa.gov (Horizons Ephemeris System)
Subject: [Horizons] SMALL BODY #C(500@10)_T(Kowalski (C/2011 S2)) (1/1)
Date: February 17, 2021 at 8:36:46 AM PST

Automated mail xmit by MAIL_REQUEST, PID= 5231 Wed Feb 17 08:36:46 2021
++++++++++++++++++++++++++++++++ (part 1 of 1)  +++++++++++++++++++++++++++++++


*******************************************************************************
Ephemeris / MAIL_REQUEST Wed Feb 17 08:36:46 2021 Pasadena, USA  / Horizons
*******************************************************************************
Target body name: Kowalski (C/2011 S2)            {source: JPL#16}
Center body name: Sun (10)                        {source: DE431}
Center-site name: BODY CENTER
*******************************************************************************
Start time      : A.D. 2011-Apr-26 00:00:00.0000 TDB
Stop  time      : A.D. 2012-Apr-26 00:00:00.0000 TDB
Step-size       : 10080 minutes
*******************************************************************************
Center geodetic : 0.00000000,0.00000000,0.0000000 {E-lon(deg),Lat(deg),Alt(km)}
Center cylindric: 0.00000000,0.00000000,0.0000000 {E-lon(deg),Dxy(km),Dz(km)}
Center radii    : 696000.0 x 696000.0 x 696000.0 k{Equator, meridian, pole}    
Small perturbers: Yes                             {source: SB431-N16}
Output units    : AU-D
Output type     : GEOMETRIC cartesian states
Output format   : 6 (LT, range, and range-rate)
Reference frame : Ecliptic of J2000.0
*******************************************************************************
Initial IAU76/J2000 heliocentric ecliptic osculating elements (au, days, deg.):
 EPOCH=  2455857.5 ! 2011-Oct-23.0000000 (TDB)    RMSW= n.a.                  
  EC= .9316035444729496   QR= 1.115118144257619   TP= 2455860.8476632615      
  OM= 288.0701101520695   W= 192.1899463594266    IN= 17.57253023753236       
 Equivalent ICRF heliocentric equatorial cartesian coordinates (au, au/d):
  X=-4.886782876545150E-01  Y= 9.391623262084037E-01  Z= 3.541554328504255E-01
 VX=-1.894487888188214E-02 VY=-6.854259071308426E-03 VZ=-1.030041783003931E-02
Comet physical (GM= km^3/s^2; RAD= km):                                        
  GM= n.a.                RAD= n.a.                                           
  M1=  14.8     M2=  16.8     k1=  16.    k2=  5.      PHCOF=  .030           
*******************************************************************************
           JDTDB,            Calendar Date (TDB),                     LT,                     RG,                     RR,
**************************************************************************************************************************
$$SOE
2455677.500000000, A.D. 2011-Apr-26 00:00:00.0000,  1.591083975845091E-02,  2.754876505515683E+00, -1.061805694014481E-02,
2455684.500000000, A.D. 2011-May-03 00:00:00.0000,  1.548038491907969E-02,  2.680345560469903E+00, -1.067601497466447E-02,
2455691.500000000, A.D. 2011-May-10 00:00:00.0000,  1.504765100802839E-02,  2.605420006395239E+00, -1.073066304558174E-02,
2455698.500000000, A.D. 2011-May-17 00:00:00.0000,  1.461278991508638E-02,  2.530126142193475E+00, -1.078107684735457E-02,
2455705.500000000, A.D. 2011-May-24 00:00:00.0000,  1.417599483505917E-02,  2.454497418508249E+00, -1.082613044216538E-02,
2455712.500000000, A.D. 2011-May-31 00:00:00.0000,  1.373750932005090E-02,  2.378576005079166E+00, -1.086445001695438E-02,
2455719.500000000, A.D. 2011-Jun-07 00:00:00.0000,  1.329763842492144E-02,  2.302414720517888E+00, -1.089435609624262E-02,
2455726.500000000, A.D. 2011-Jun-14 00:00:00.0000,  1.285676247200852E-02,  2.226079415595873E+00, -1.091379135176088E-02,
2455733.500000000, A.D. 2011-Jun-21 00:00:00.0000,  1.241535404737231E-02,  2.149651916052921E+00, -1.092023287881597E-02,
2455740.500000000, A.D. 2011-Jun-28 00:00:00.0000,  1.197399890436730E-02,  2.073233641938431E+00, -1.091058522722170E-02,
2455747.500000000, A.D. 2011-Jul-05 00:00:00.0000,  1.153342173796470E-02,  1.996950070296997E+00, -1.088104546893936E-02,
2455754.500000000, A.D. 2011-Jul-12 00:00:00.0000,  1.109451800275783E-02,  1.920956244285251E+00, -1.082693937870255E-02,
2455761.500000000, A.D. 2011-Jul-19 00:00:00.0000,  1.065839294657278E-02,  1.845443531632057E+00, -1.074252786708159E-02,
2455768.500000000, A.D. 2011-Jul-26 00:00:00.0000,  1.022640909333983E-02,  1.770647846042837E+00, -1.062078291926538E-02,
2455775.500000000, A.D. 2011-Aug-02 00:00:00.0000,  9.800243304496213E-03,  1.696859527075180E+00, -1.045313980357584E-02,
2455782.500000000, A.D. 2011-Aug-09 00:00:00.0000,  9.381954037521130E-03,  1.624434985593202E+00, -1.022924514698918E-02,
2455789.500000000, A.D. 2011-Aug-16 00:00:00.0000,  8.974058225824415E-03,  1.553810015107613E+00, -9.936742252269900E-03,
2455796.500000000, A.D. 2011-Aug-23 00:00:00.0000,  8.579614869836133E-03,  1.485514265124227E+00, -9.561170382900924E-03,
2455803.500000000, A.D. 2011-Aug-30 00:00:00.0000,  8.202308329201298E-03,  1.420185662740421E+00, -9.086107026364740E-03,
2455810.500000000, A.D. 2011-Sep-06 00:00:00.0000,  7.846517770496567E-03,  1.358582437144527E+00, -8.493749104476990E-03,
2455817.500000000, A.D. 2011-Sep-13 00:00:00.0000,  7.517349925512346E-03,  1.301588791536563E+00, -7.766194438125428E-03,
2455824.500000000, A.D. 2011-Sep-20 00:00:00.0000,  7.220601080379163E-03,  1.250208321749473E+00, -6.887703943610611E-03,
2455831.500000000, A.D. 2011-Sep-27 00:00:00.0000,  6.962604703667934E-03,  1.205537633872522E+00, -5.848100138616523E-03,
2455838.500000000, A.D. 2011-Oct-04 00:00:00.0000,  6.749921496126551E-03,  1.168712678026790E+00, -4.647080056768824E-03,
2455845.500000000, A.D. 2011-Oct-11 00:00:00.0000,  6.588850109967058E-03,  1.140824032035874E+00, -3.298560166177866E-03,
2455852.500000000, A.D. 2011-Oct-18 00:00:00.0000,  6.484788166144982E-03,  1.122806264997434E+00, -1.833415041976210E-03,
2455859.500000000, A.D. 2011-Oct-25 00:00:00.0000,  6.441547840952067E-03,  1.115319434775192E+00, -2.986984293270835E-04,
2455866.500000000, A.D. 2011-Nov-01 00:00:00.0000,  6.460794469180848E-03,  1.118651885150082E+00,  1.247693696939815E-03,
2455873.500000000, A.D. 2011-Nov-08 00:00:00.0000,  6.541780727948854E-03,  1.132674221176129E+00,  2.745957503985660E-03,
2455880.500000000, A.D. 2011-Nov-15 00:00:00.0000,  6.681467470263022E-03,  1.156860230863577E+00,  4.143989560157143E-03,
2455887.500000000, A.D. 2011-Nov-22 00:00:00.0000,  6.874989111019299E-03,  1.190367464266839E+00,  5.404349175115553E-03,
2455894.500000000, A.D. 2011-Nov-29 00:00:00.0000,  7.116312659908363E-03,  1.232151341494880E+00,  6.506761007134232E-03,
2455901.500000000, A.D. 2011-Dec-06 00:00:00.0000,  7.398910795050707E-03,  1.281081691798526E+00,  7.446521733959297E-03,
2455908.500000000, A.D. 2011-Dec-13 00:00:00.0000,  7.716316077180892E-03,  1.336038712781821E+00,  8.230546207621809E-03,
2455915.500000000, A.D. 2011-Dec-20 00:00:00.0000,  8.062499479264799E-03,  1.395978510773558E+00,  8.872893808810853E-03,
2455922.500000000, A.D. 2011-Dec-27 00:00:00.0000,  8.432078874220858E-03,  1.459969199357193E+00,  9.390961333787865E-03,
2455929.500000000, A.D. 2012-Jan-03 00:00:00.0000,  8.820395622786694E-03,  1.527204160148879E+00,  9.802788806921581E-03,
2455936.500000000, A.D. 2012-Jan-10 00:00:00.0000,  9.223504441116042E-03,  1.597000288426262E+00,  1.012543086204313E-02,
2455943.500000000, A.D. 2012-Jan-17 00:00:00.0000,  9.638114791003806E-03,  1.668787845160516E+00,  1.037413913465559E-02,
2455950.500000000, A.D. 2012-Jan-24 00:00:00.0000,  1.006151086525711E-02,  1.742096602912820E+00,  1.056207808574474E-02,
2455957.500000000, A.D. 2012-Jan-31 00:00:00.0000,  1.049146698529270E-02,  1.816541197382424E+00,  1.070035091119108E-02,
2455964.500000000, A.D. 2012-Feb-07 00:00:00.0000,  1.092616761738719E-02,  1.891807278649684E+00,  1.079818193214804E-02,
2455971.500000000, A.D. 2012-Feb-14 00:00:00.0000,  1.136413624911205E-02,  1.967639196512526E+00,  1.086316071357898E-02,
2455978.500000000, A.D. 2012-Feb-21 00:00:00.0000,  1.180417443448059E-02,  2.043829446480801E+00,  1.090149471649147E-02,
2455985.500000000, A.D. 2012-Feb-28 00:00:00.0000,  1.224531074052384E-02,  2.120209830149930E+00,  1.091824352191443E-02,
2455992.500000000, A.D. 2012-Mar-06 00:00:00.0000,  1.268675858662907E-02,  2.196644155308656E+00,  1.091752380651519E-02,
2455999.500000000, A.D. 2012-Mar-13 00:00:00.0000,  1.312788177161870E-02,  2.273022267137776E+00,  1.090268510767502E-02,
2456006.500000000, A.D. 2012-Mar-20 00:00:00.0000,  1.356816652138013E-02,  2.349255208407288E+00,  1.087645608139044E-02,
2456013.500000000, A.D. 2012-Mar-27 00:00:00.0000,  1.400719883551800E-02,  2.425271297170811E+00,  1.084106130451270E-02,
2456020.500000000, A.D. 2012-Apr-03 00:00:00.0000,  1.444464609377046E-02,  2.501012942015286E+00,  1.079831640874807E-02,
2456027.500000000, A.D. 2012-Apr-10 00:00:00.0000,  1.488024214898935E-02,  2.576434060990510E+00,  1.074970579301806E-02,
2456034.500000000, A.D. 2012-Apr-17 00:00:00.0000,  1.531377524821855E-02,  2.651497990208675E+00,  1.069644526582841E-02,
2456041.500000000, A.D. 2012-Apr-24 00:00:00.0000,  1.574507822855794E-02,  2.726175786310844E+00,  1.063953238717954E-02,
$$EOE
**************************************************************************************************************************
Coordinate system description:

 Ecliptic at the standard reference epoch

   Reference epoch: J2000.0
   X-Y plane: adopted Earth orbital plane at the reference epoch
              Note: obliquity of 84381.448 arcseconds (IAU76) wrt ICRF equator
   X-axis   : ICRF
   Z-axis   : perpendicular to the X-Y plane in the directional (+ or -) sense
              of Earth's north pole at the reference epoch.

 Symbol meaning [1 au= 149597870.700 km, 1 day= 86400.0 s]:

   JDTDB    Julian Day Number, Barycentric Dynamical Time
     LT     One-way down-leg Newtonian light-time (day)
     RG     Range; distance from coordinate center (au)
     RR     Range-rate; radial velocity wrt coord. center (au/day)

Geometric states/elements have no aberrations applied.


Computations by ...
    Solar System Dynamics Group, Horizons On-Line Ephemeris System
    4800 Oak Grove Drive, Jet Propulsion Laboratory
    Pasadena, CA  91109   USA
    Information  : https://ssd.jpl.nasa.gov/
    Documentation: https://ssd.jpl.nasa.gov/?horizons_doc
    Connect      : https://ssd.jpl.nasa.gov/?horizons (browser)
                   telnet ssd.jpl.nasa.gov 6775       (command-line)
                   e-mail command interface available
                   Script and CGI interfaces available
    Author       : Jon.D.Giorgini@jpl.nasa.gov
*******************************************************************************
